H1 CPF 01  gfz 2021 08 27 12  7392 tandemx   
H2 1003001  6202 36605    2021 08 27 00 59 42 2021 09 01 00 00 42   120 1 1  0 0 0
H9
10 0 59454  49662.000000  0    2176238.776   5422604.238  -3657740.373
10 0 59454  49782.000000  0    2513957.590   5743765.734  -2863547.578
10 0 59454  49902.000000  0    2812556.570   5959248.959  -2019093.739
10 0 59454  50022.000000  0    3064909.187   6065948.309  -1139169.206
10 0 59454  50142.000000  0    3264657.765   6062783.402   -239217.800
10 0 59454  50262.000000  0    3406364.915   5950711.013    664939.975
10 0 59454  50382.000000  0    3485648.054   5732695.885   1557391.997
10 0 59454  50502.000000  0    3499293.992   5413642.069   2422422.410
10 0 59454  50622.000000  0    3445349.206   5000285.682   3244797.164
10 0 59454  50742.000000  0    3323184.644   4501049.492   4010039.989
10 0 59454  50862.000000  0    3133533.755   3925866.567   4704691.567
10 0 59454  50982.000000  0    2878499.043   3285975.645   5316550.617
10 0 59454  51102.000000  0    2561530.350   2593693.011   5834885.087
10 0 59454  51222.000000  0    2187378.806   1862170.308   6250615.538
10 0 59454  51342.000000  0    1762024.004   1105139.958   6556469.931
10 0 59454  51462.000000  0    1292575.398    336654.064   6747103.971
10 0 59454  51582.000000  0     787151.681   -429175.766   6819188.270
10 0 59454  51702.000000  0     254739.997  -1178436.993   6771464.492
10 0 59454  51822.000000  0    -294964.179  -1897669.196   6604765.957
10 0 59454  51942.000000  0    -851733.664  -2574105.871   6322003.461
10 0 59454  52062.000000  0   -1404998.742  -3195901.403   5928116.007
10 0 59454  52182.000000  0   -1944044.963  -3752339.303   5429989.608
10 0 59454  52302.000000  0   -2458220.432  -4234020.744   4836345.124
10 0 59454  52422.000000  0   -2937148.996  -4633029.968   4157592.541
10 0 59454  52542.000000  0   -3370942.961  -4943071.277   3405651.980
10 0 59454  52662.000000  0   -3750409.173  -5159574.405   2593744.965
10 0 59454  52782.000000  0   -4067244.519  -5279766.336   1736161.098
10 0 59454  52902.000000  0   -4314217.928  -5302707.831    848002.692
10 0 59454  53022.000000  0   -4485332.997  -5229292.474    -55087.647
10 0 59454  53142.000000  0   -4575967.337  -5062208.842   -957210.609
10 0 59454  53262.000000  0   -4582984.490  -4805866.039  -1842499.853
10 0 59454  53382.000000  0   -4504814.772  -4466283.612  -2695410.060
10 0 59454  53502.000000  0   -4341503.641  -4050949.790  -3500995.828
10 0 59454  53622.000000  0   -4094727.121  -3568653.212  -4245175.718
10 0 59454  53742.000000  0   -3767774.946  -3029292.782  -4914977.013
10 0 59454  53862.000000  0   -3365502.108  -2443669.802  -5498757.059
10 0 59454  53982.000000  0   -2894250.570  -1823268.225  -5986397.154
10 0 59454  54102.000000  0   -2361744.018  -1180027.822  -6369467.970
10 0 59454  54222.000000  0   -1776956.546   -526114.363  -6641364.227
10 0 59454  54342.000000  0   -1149959.031    126308.010  -6797406.331
10 0 59454  54462.000000  0    -491747.680    765297.620  -6834911.061
10 0 59454  54582.000000  0     185944.936   1379348.206  -6753232.909
10 0 59454  54702.000000  0     870852.860   1957590.183  -6553774.188
10 0 59454  54822.000000  0    1550393.850   2489979.322  -6239965.822
10 0 59454  54942.000000  0    2211895.950   2967469.361  -5817214.338
10 0 59454  55062.000000  0    2842830.221   3382165.876  -5292817.612
10 0 59454  55182.000000  0    3431045.480   3727458.338  -4675850.012
10 0 59454  55302.000000  0    3965003.134   3998130.459  -3977017.338
10 0 59454  55422.000000  0    4434007.026   4190444.587  -3208480.885
10 0 59454  55542.000000  0    4828422.975   4302197.892  -2383652.262
10 0 59454  55662.000000  0    5139881.630   4332748.322  -1516962.758
10 0 59454  55782.000000  0    5361461.326   4283009.811   -623610.505
10 0 59454  55902.000000  0    5487843.946   4155415.921    280709.926
10 0 59454  56022.000000  0    5515441.114   3953853.305   1180089.028
10 0 59454  56142.000000  0    5442487.457   3683564.648   2058690.538
10 0 59454  56262.000000  0    5269096.755   3351023.511   2901039.425
10 0 59454  56382.000000  0    4997278.755   2963785.579   3692303.038
10 0 59454  56502.000000  0    4630917.309   2530318.949   4418558.865
10 0 59454  56622.000000  0    4175710.864   2059817.824   5067041.109
10 0 59454  56742.000000  0    3639078.874   1562007.831   5626366.413
10 0 59454  56862.000000  0    3030031.727   1046942.974   6086731.882
10 0 59454  56982.000000  0    2359012.047    524800.551   6440080.127
10 0 59454  57102.000000  0    1637711.303      5680.899   6680232.958
10 0 59454  57222.000000  0     878863.785   -500586.711   6802995.365
10 0 59454  57342.000000  0      96019.351   -984630.198   6806224.982
10 0 59454  57462.000000  0    -696699.025  -1437707.568   6689866.200
10 0 59454  57582.000000  0   -1484849.605  -1851864.820   6455950.256
10 0 59454  57702.000000  0   -2253933.310  -2220075.249   6108560.556
10 0 59454  57822.000000  0   -2989658.389  -2536358.496   5653767.395
10 0 59454  57942.000000  0   -3678209.054  -2795880.598   5099530.530
10 0 59454  58062.000000  0   -4306510.292  -2995030.349   4455564.336
10 0 59454  58182.000000  0   -4862481.309  -3131470.108   3733171.330
10 0 59454  58302.000000  0   -5335273.970  -3204160.173   2945046.804
10 0 59454  58422.000000  0   -5715491.941  -3213357.172   2105057.303
10 0 59454  58542.000000  0   -5995385.347  -3160586.279   1227993.957
10 0 59454  58662.000000  0   -6169013.828  -3048585.986    329305.489
10 0 59454  58782.000000  0   -6232374.394  -2881227.043   -575181.331
10 0 59454  58902.000000  0   -6183491.504  -2663408.550  -1469549.939
10 0 59454  59022.000000  0   -6022464.246  -2400932.239  -2338083.930
10 0 59454  59142.000000  0   -5751471.103  -2100359.865  -3165549.628
10 0 59454  59262.000000  0   -5374734.183  -1768857.575  -3937467.169
10 0 59454  59382.000000  0   -4898443.188  -1414031.008  -4640364.179
10 0 59454  59502.000000  0   -4330642.760  -1043755.492  -5262007.827
10 0 59454  59622.000000  0   -3681085.107   -666004.883  -5791611.311
10 0 59454  59742.000000  0   -2961052.785   -288683.619  -6220010.890
10 0 59454  59862.000000  0   -2183156.546     80534.586  -6539812.642
10 0 59454  59982.000000  0   -1361111.540    434357.833  -6745508.526
10 0 59454  60102.000000  0    -509496.720    766014.704  -6833560.640
10 0 59454  60222.000000  0     356498.603   1069380.247  -6802454.727
10 0 59454  60342.000000  0    1221337.874   1339085.110  -6652723.808
10 0 59454  60462.000000  0    2069410.127   1570608.629  -6386942.476
10 0 59454  60582.000000  0    2885306.450   1760354.199  -6009687.177
10 0 59454  60702.000000  0    3654096.131   1905704.643  -5527464.638
10 0 59454  60822.000000  0    4361597.344   2005057.459  -4948610.356
10 0 59454  60942.000000  0    4994641.474   2057840.135  -4283156.613
10 0 59454  61062.000000  0    5541324.110   2064503.975  -3542668.443
10 0 59454  61182.000000  0    5991236.755   2026496.285  -2740051.302
10 0 59454  61302.000000  0    6335676.239   1946211.771  -1889332.390
10 0 59454  61422.000000  0    6567824.648   1826923.687  -1005416.246
10 0 59454  61542.000000  0    6682894.537   1672695.247   -103821.290
10 0 59454  61662.000000  0    6678234.835   1488273.374    799599.310
10 0 59454  61782.000000  0    6553393.560   1278968.372   1688942.692
10 0 59454  61902.000000  0    6310139.665   1050521.665   2548545.239
10 0 59454  62022.000000  0    5952437.131    808964.269   3363267.749
10 0 59454  62142.000000  0    5486375.805    560471.175   4118769.226
10 0 59454  62262.000000  0    4920058.400    311214.503   4801763.328
10 0 59454  62382.000000  0    4263451.219     67220.431   5400253.047
10 0 59454  62502.000000  0    3528198.200   -165769.108   5903741.052
10 0 59454  62622.000000  0    2727404.539   -382424.073   6303408.489
10 0 59454  62742.000000  0    1875397.048   -577941.820   6592263.545
10 0 59454  62862.000000  0     987463.844   -748149.028   6765258.785
10 0 59454  62982.000000  0      79576.519   -889588.001   6819374.473
10 0 59454  63102.000000  0    -831897.771   -999585.189   6753666.704
10 0 59454  63222.000000  0   -1730490.362  -1076301.657   6569282.083
10 0 59454  63342.000000  0   -2599927.058  -1118763.667   6269438.240
10 0 59454  63462.000000  0   -3424421.342  -1126873.270   5859372.094
10 0 59454  63582.000000  0   -4188963.707  -1101399.526   5346255.819
10 0 59454  63702.000000  0   -4879600.580  -1043950.982   4739077.694
10 0 59454  63822.000000  0   -5483696.585   -956928.336   4048489.391
10 0 59454  63942.000000  0   -5990174.040   -843458.587   3286621.896
10 0 59454  64062.000000  0   -6389724.659   -707312.001   2466874.363
10 0 59454  64182.000000  0   -6674991.590   -552803.713   1603678.430
10 0 59454  64302.000000  0   -6840714.604   -384682.155    712238.728
10 0 59454  64422.000000  0   -6883832.577   -208007.467   -191742.739
10 0 59454  64542.000000  0   -6803542.150    -28022.306  -1092352.051
10 0 59454  64662.000000  0   -6601309.945    149981.421  -1973752.707
10 0 59454  64782.000000  0   -6280840.017    320795.723  -2820470.392
10 0 59454  64902.000000  0   -5847998.327    479427.026  -3617671.457
10 0 59454  65022.000000  0   -5310692.083    621220.930  -4351425.912
10 0 59454  65142.000000  0   -4678712.063    741977.362  -5008948.964
10 0 59454  65262.000000  0   -3963541.111    838053.659  -5578817.958
10 0 59454  65382.000000  0   -3178135.150    906453.462  -6051161.736
10 0 59454  65502.000000  0   -2336681.057    944899.167  -6417820.103
10 0 59454  65622.000000  0   -1454337.983    951888.032  -6672473.197
10 0 59454  65742.000000  0    -546964.404    926731.054  -6810739.452
10 0 59454  65862.000000  0     369161.791    869573.152  -6830241.238
10 0 59454  65982.000000  0    1277626.840    781395.118  -6730642.333
10 0 59454  66102.000000  0    2162169.251    663997.038  -6513655.195
99
